[{"OBJECT_NAME":"STARLINK-4252","OBJECT_ID":"2022-077Q","EPOCH":"2026-03-09T22:40:46.889760","MEAN_MOTION":15.05655199,"ECCENTRICITY":0.00015341,"INCLINATION":97.6027,"RA_OF_ASC_NODE":251.553,"ARG_OF_PERICENTER":69.2175,"MEAN_ANOMALY":290.9216,"EPHEMERIS_TYPE":0,"CLASSIFICATION_TYPE":"U","NORAD_CAT_ID":53057,"ELEMENT_SET_NO":999,"REV_AT_EPOCH":20102,"BSTAR":-2.0556285e-5,"MEAN_MOTION_DOT":-3.57e-6,"MEAN_MOTION_DDOT":0},{"OBJECT_NAME":"FENGYUN 1C DEB","OBJECT_ID":"1999-025AMM","EPOCH":"2026-03-09T23:05:15.567936","MEAN_MOTION":14.58578294,"ECCENTRICITY":0.02096652,"INCLINATION":98.0952,"RA_OF_ASC_NODE":81.878,"ARG_OF_PERICENTER":224.9272,"MEAN_ANOMALY":164.1003,"EPHEMERIS_TYPE":0,"CLASSIFICATION_TYPE":"U","NORAD_CAT_ID":30606,"ELEMENT_SET_NO":999,"REV_AT_EPOCH":514,"BSTAR":0.00059655112,"MEAN_MOTION_DOT":3.71e-5,"MEAN_MOTION_DDOT":0}]
